KAITUO 1B               
1 40912U 15049P   17311.07067853  .00002095  00000-0  10559-3 0  9993
2 40912  97.4507 316.6438 0017400  67.6831 338.0939 15.18139485117968
TIANWANG 1C (TW-1C)     
1 40926U 15051B   17311.11259409  .00010386  00000-0  21880-3 0  9997
2 40926  97.2135 349.6657 0011030  22.0285  36.4805 15.45379535118973
TIANWANG 1B (TW-1B)     
1 40927U 15051C   17311.16028416  .00010678  00000-0  23372-3 0  9997
2 40927  97.2225 349.6644 0011944  29.3492  46.6749 15.44231170118919
TIANWANG 1A (TW-1A)     
1 40928U 15051D   17311.21812069  .00003844  00000-0  10702-3 0  9999
2 40928  97.2121 344.4479 0013800  49.7378  24.6847 15.37322049118661
LAPAN-A2 (IO-86)        
1 40931U 15052B   17311.17262408  .00000820  00000-0  25194-4 0  9998
2 40931   5.9986 293.2091 0013114 103.3377 256.8232 14.76554153114135
LQSAT                   
1 40958U 15057A   17311.17384178  .00000065  00000-0  17851-4 0  9993
2 40958  97.9664  23.9026 0017603 332.9578  27.0735 14.72998013112164
CHUBUSAT-2              
1 41338U 16012B   17310.37839359  .00000634  00000-0  43104-4 0  9997
2 41338  31.0037 289.1283 0013816  27.0501 333.0852 14.99858679 94353
CHUBUSAT-3              
1 41339U 16012C   17311.15254342  .00000518  00000-0  33836-4 0  9990
2 41339  31.0103 283.1298 0013541  40.9064 319.2571 15.00055582 94451
OUFTI-1                 
1 41458U 16025C   17311.20268323  .00003564  00000-0  19020-3 0  9998
2 41458  98.1705 356.9190 0173000 171.0788 189.3570 15.03876369 84069
E-ST@R-II               
1 41459U 16025D   17311.10752691  .00001736  00000-0  95337-4 0  9999
2 41459  98.1688 356.7370 0174048 171.6021 188.8192 15.03651986 84045
AAUSAT 4                
1 41460U 16025E   17311.07736267  .00004705  00000-0  24948-3 0  9996
2 41460  98.1628 356.9107 0165697 169.4799 190.9968 15.04795726 84078
NUSAT 1 (LO-87)         
1 41557U 16033B   17311.16869162  .00001627  00000-0  62887-4 0  9998
2 41557  97.4541  30.6592 0013077 217.1749 142.8585 15.27649353 80251
BEESAT-4                
1 41619U 16040W   17310.75270420  .00002540  00000-0  11627-3 0  9992
2 41619  97.4460  11.6835 0010316 292.4503  67.5639 15.21385933 64267
PRATHAM                 
1 41783U 16059A   17310.70701374  .00000134  00000-0  35319-4 0  9998
2 41783  98.1502  10.4792 0034858  74.6959 285.8091 14.62875859 59430
ALSAT 1N                
1 41789U 16059G   17311.12404379  .00000126  00000-0  33131-4 0  9997
2 41789  98.1511  11.6708 0029738  67.2104 293.2261 14.64096230 59529
NAYIF-1 (EO-88)         
1 42017U 17008BX  17310.78610975  .00002837  00000-0  12126-3 0  9990
2 42017  97.4787  11.8887 0008209  84.1880 276.0293 15.23653554 40191
LILACSAT-1              
1 42725U 98067ME  17311.14921762  .00012468  00000-0  15695-3 0  9995
2 42725  51.6397  42.4026 0005045 116.0469 244.1044 15.60050863 25754
MAX VALIER SAT          
1 42778U 17036P   17311.15408753  .00001458  00000-0  69176-4 0  9992
2 42778  97.4352   9.2158 0014265 123.8192 236.4403 15.20778261 20754
